{"type": "FeatureCollection", "features": [ {"type": "Feature", "properties": {"norad_id": 37084, "name": "COSMOS 2251 DEB", "group": "cosmos-2251-debris", "lat": -52.12870524152926, "lon": 141.76771956760325, "alt_km": 536.9716103579549, "timestamp": "2025-12-11T18:59:46.472987+00:00", "meta": {"OBJECT_NAME": "COSMOS 2251 DEB", "OBJECT_ID": "1993-036BFE", "EPOCH": "2025-12-08T19:15:18.077184", "MEAN_MOTION": 15.00891112, "ECCENTRICITY": 0.00979748, "INCLINATION": 74.0259, "RA_OF_ASC_NODE": 169.4673, "ARG_OF_PERICENTER": 250.8811, "MEAN_ANOMALY": 108.175, "EPHEMERIS_TYPE": 0, "CLASSIFICATION_TYPE": "U", "NORAD_CAT_ID": 37084, "ELEMENT_SET_NO": 999, "REV_AT_EPOCH": 66208, "BSTAR": 0.00080064992, "MEAN_MOTION_DOT": 0.00011267, "MEAN_MOTION_DDOT": 0}, "tle": {"line1": "1 37084U 93036BFE 25342.80229256  .00011267  00000+0  80065-3 0  9991", "line2": "2 37084  74.0259 169.4673 0097974 250.8811 108.1750 15.00891112662080"}}, "geometry": {"type": "Point", "coordinates": [141.76771956760325, -52.12870524152926]}}, {"type": "Feature", "properties": {"norad_id": 37085, "name": "COSMOS 2251 DEB", "group": "cosmos-2251-debris", "lat": -28.92400566851664, "lon": 47.27646171275228, "alt_km": 462.48981076861946, "timestamp": "2025-12-11T18:59:46.472997+00:00", "meta": {"OBJECT_NAME": "COSMOS 2251 DEB", "OBJECT_ID": "1993-036BFF", "EPOCH": "2025-12-02T23:36:37.668384", "MEAN_MOTION": 15.39020756, "ECCENTRICITY": 0.0022856, "INCLINATION": 73.9503, "RA_OF_ASC_NODE": 237.2473, "ARG_OF_PERICENTER": 76.375, "MEAN_ANOMALY": 284, "EPHEMERIS_TYPE": 0, "CLASSIFICATION_TYPE": "U", "NORAD_CAT_ID": 37085, "ELEMENT_SET_NO": 999, "REV_AT_EPOCH": 66987, "BSTAR": 0.0028642077, "MEAN_MOTION_DOT": 0.00113322, "MEAN_MOTION_DDOT": 0}, "tle": {"line1": "1 37085U 93036BFF 25336.98376931  .00113322  00000+0  28642-2 0  9994", "line2": "2 37085  73.9503 237.2473 0022856  76.3750 284.0000 15.39020756669879"}}, "geometry": {"type": "Point", "coordinates": [47.27646171275228, -28.92400566851664]}}, {"type": "Feature", "properties": {"norad_id": 37089, "name": "COSMOS 2251 DEB", "group": "cosmos-2251-debris", "lat": -57.91956324440005, "lon": 120.36457240257884, "alt_km": 661.0399409471584, "timestamp": "2025-12-11T18:59:46.473007+00:00", "meta": {"OBJECT_NAME": "COSMOS 2251 DEB", "OBJECT_ID": "1993-036BFK", "EPOCH": "2025-12-09T17:42:06.763392", "MEAN_MOTION": 14.52845175, "ECCENTRICITY": 0.01352804, "INCLINATION": 74.0366, "RA_OF_ASC_NODE": 151.4105, "ARG_OF_PERICENTER": 252.1975, "MEAN_ANOMALY": 106.439, "EPHEMERIS_TYPE": 0, "CLASSIFICATION_TYPE": "U", "NORAD_CAT_ID": 37089, "ELEMENT_SET_NO": 999, "REV_AT_EPOCH": 66066, "BSTAR": 0.0037030969, "MEAN_MOTION_DOT": 0.00017193, "MEAN_MOTION_DDOT": 0}, "tle": {"line1": "1 37089U 93036BFK 25343.73757828  .00017193  00000+0  37031-2 0  9998", "line2": "2 37089  74.0366 151.4105 0135280 252.1975 106.4390 14.52845175660661"}}, "geometry": {"type": "Point", "coordinates": [120.36457240257884, -57.91956324440005]}}, {"type": "Feature", "properties": {"norad_id": 37094, "name": "COSMOS 2251 DEB", "group": "cosmos-2251-debris", "lat": 60.85384228419498, "lon": -87.819144152012, "alt_km": 705.1665790114284, "timestamp": "2025-12-11T18:59:46.473017+00:00", "meta": {"OBJECT_NAME": "COSMOS 2251 DEB", "OBJECT_ID": "1993-036BFQ", "EPOCH": "2025-12-10T15:45:11.030688", "MEAN_MOTION": 14.37808892, "ECCENTRICITY": 0.0084108, "INCLINATION": 74.1091, "RA_OF_ASC_NODE": 124.9809, "ARG_OF_PERICENTER": 91.4784, "MEAN_ANOMALY": 269.6007, "EPHEMERIS_TYPE": 0, "CLASSIFICATION_TYPE": "U", "NORAD_CAT_ID": 37094, "ELEMENT_SET_NO": 999, "REV_AT_EPOCH": 84476, "BSTAR": 0.0015212, "MEAN_MOTION_DOT": 4.753e-05, "MEAN_MOTION_DDOT": 0}, "tle": {"line1": "1 37094U 93036BFQ 25344.65637767  .00004753  00000+0  15212-2 0  9990", "line2": "2 37094  74.1091 124.9809 0084108  91.4784 269.6007 14.37808892844763"}}, "geometry": {"type": "Point", "coordinates": [-87.819144152012, 60.85384228419498]}}, {"type": "Feature", "properties": {"norad_id": 37095, "name": "COSMOS 2251 DEB", "group": "cosmos-2251-debris", "lat": 20.76490550299186, "lon": 5.273397089370384, "alt_km": 882.0265621804783, "timestamp": "2025-12-11T18:59:46.473027+00:00", "meta": {"OBJECT_NAME": "COSMOS 2251 DEB", "OBJECT_ID": "1993-036BFR", "EPOCH": "2025-12-09T20:01:56.039232", "MEAN_MOTION": 14.03378058, "ECCENTRICITY": 0.01946745, "INCLINATION": 73.8479, "RA_OF_ASC_NODE": 195.0272, "ARG_OF_PERICENTER": 253.3329, "MEAN_ANOMALY": 104.6357, "EPHEMERIS_TYPE": 0, "CLASSIFICATION_TYPE": "U", "NORAD_CAT_ID": 37095, "ELEMENT_SET_NO": 999, "REV_AT_EPOCH": 62595, "BSTAR": 0.002528344, "MEAN_MOTION_DOT": 4.65e-05, "MEAN_MOTION_DDOT": 0}, "tle": {"line1": "1 37095U 93036BFR 25343.83467638  .00004650  00000+0  25283-2 0  9993", "line2": "2 37095  73.8479 195.0272 0194674 253.3329 104.6357 14.03378058625950"}}, "geometry": {"type": "Point", "coordinates": [5.273397089370384, 20.76490550299186]}}, {"type": "Feature", "properties": {"norad_id": 37108, "name": "COSMOS 2251 DEB", "group": "cosmos-2251-debris", "lat": 66.79351724653931, "lon": 124.1754722892318, "alt_km": 742.5843373367143, "timestamp": "2025-12-11T18:59:46.473037+00:00", "meta": {"OBJECT_NAME": "COSMOS 2251 DEB", "OBJECT_ID": "1993-036BGE", "EPOCH": "2025-12-09T23:20:35.191392", "MEAN_MOTION": 14.41257744, "ECCENTRICITY": 0.00916675, "INCLINATION": 74.0451, "RA_OF_ASC_NODE": 85.6842, "ARG_OF_PERICENTER": 163.0821, "MEAN_ANOMALY": 197.3428, "EPHEMERIS_TYPE": 0, "CLASSIFICATION_TYPE": "U", "NORAD_CAT_ID": 37108, "ELEMENT_SET_NO": 999, "REV_AT_EPOCH": 85467, "BSTAR": 0.0022378901, "MEAN_MOTION_DOT": 7.583e-05, "MEAN_MOTION_DDOT": 0}, "tle": {"line1": "1 37108U 93036BGE 25343.97262953  .00007583  00000+0  22379-2 0  9997", "line2": "2 37108  74.0451  85.6842 0091667 163.0821 197.3428 14.41257744854678"}}, "geometry": {"type": "Point", "coordinates": [124.1754722892318, 66.79351724653931]}}, {"type": "Feature", "properties": {"norad_id": 37126, "name": "COSMOS 2251 DEB", "group": "cosmos-2251-debris", "lat": -42.08542144992996, "lon": -168.54447203467961, "alt_km": 572.3156614821391, "timestamp": "2025-12-11T18:59:46.473047+00:00", "meta": {"OBJECT_NAME": "COSMOS 2251 DEB", "OBJECT_ID": "1993-036BGY", "EPOCH": "2025-12-10T07:44:48.551424", "MEAN_MOTION": 14.73059683, "ECCENTRICITY": 0.0123308, "INCLINATION": 73.9536, "RA_OF_ASC_NODE": 359.2652, "ARG_OF_PERICENTER": 237.9672, "MEAN_ANOMALY": 120.9475, "EPHEMERIS_TYPE": 0, "CLASSIFICATION_TYPE": "U", "NORAD_CAT_ID": 37126, "ELEMENT_SET_NO": 999, "REV_AT_EPOCH": 8063, "BSTAR": 0.00038210319, "MEAN_MOTION_DOT": 2.735e-05, "MEAN_MOTION_DDOT": 0}, "tle": {"line1": "1 37126U 93036BGY 25344.32278416  .00002735  00000+0  38210-3 0  9994", "line2": "2 37126  73.9536 359.2652 0123308 237.9672 120.9475 14.73059683 80630"}}, "geometry": {"type": "Point", "coordinates": [-168.54447203467961, -42.08542144992996]}}, {"type": "Feature", "properties": {"norad_id": 37132, "name": "COSMOS 2251 DEB", "group": "cosmos-2251-debris", "lat": -71.8466903171644, "lon": 116.95029981254368, "alt_km": 661.3156180638316, "timestamp": "2025-12-11T18:59:46.473057+00:00", "meta": {"OBJECT_NAME": "COSMOS 2251 DEB", "OBJECT_ID": "1993-036BHE", "EPOCH": "2025-12-07T11:27:27.762624", "MEAN_MOTION": 14.77705967, "ECCENTRICITY": 0.0039737, "INCLINATION": 74.0029, "RA_OF_ASC_NODE": 244.3909, "ARG_OF_PERICENTER": 41.7313, "MEAN_ANOMALY": 318.688, "EPHEMERIS_TYPE": 0, "CLASSIFICATION_TYPE": "U", "NORAD_CAT_ID": 37132, "ELEMENT_SET_NO": 999, "REV_AT_EPOCH": 62338, "BSTAR": 0.0017835716, "MEAN_MOTION_DOT": 0.00012942, "MEAN_MOTION_DDOT": 0}, "tle": {"line1": "1 37132U 93036BHE 25341.47740466  .00012942  00000+0  17836-2 0  9994", "line2": "2 37132  74.0029 244.3909 0039737  41.7313 318.6880 14.77705967623388"}}, "geometry": {"type": "Point", "coordinates": [116.95029981254368, -71.8466903171644]}}, {"type": "Feature", "properties": {"norad_id": 37270, "name": "COSMOS 2251 DEB", "group": "cosmos-2251-debris", "lat": 68.70884499283525, "lon": 109.73172847249869, "alt_km": 1142.4761400122616, "timestamp": "2025-12-11T18:59:46.473067+00:00", "meta": {"OBJECT_NAME": "COSMOS 2251 DEB", "OBJECT_ID": "1993-036BHJ", "EPOCH": "2025-12-06T23:44:09.019392", "MEAN_MOTION": 13.59708116, "ECCENTRICITY": 0.03977945, "INCLINATION": 73.9304, "RA_OF_ASC_NODE": 345.2655, "ARG_OF_PERICENTER": 358.2371, "MEAN_ANOMALY": 1.731, "EPHEMERIS_TYPE": 0, "CLASSIFICATION_TYPE": "U", "NORAD_CAT_ID": 37270, "ELEMENT_SET_NO": 999, "REV_AT_EPOCH": 76991, "BSTAR": 0.0060698053, "MEAN_MOTION_DOT": 7.585e-05, "MEAN_MOTION_DDOT": 0}, "tle": {"line1": "1 37270U 93036BHJ 25340.98899328  .00007585  00000+0  60698-2 0  9995", "line2": "2 37270  73.9304 345.2655 0397794 358.2371   1.7310 13.59708116769910"}}, "geometry": {"type": "Point", "coordinates": [109.73172847249869, 68.70884499283525]}}, {"type": "Feature", "properties": {"norad_id": 37278, "name": "COSMOS 2251 DEB", "group": "cosmos-2251-debris", "lat": -57.39350342873787, "lon": -36.03966439808363, "alt_km": 968.5646517110918, "timestamp": "2025-12-11T18:59:46.473078+00:00", "meta": {"OBJECT_NAME": "COSMOS 2251 DEB", "OBJECT_ID": "1993-036BHS", "EPOCH": "2025-12-04T09:26:36.152736", "MEAN_MOTION": 14.15029915, "ECCENTRICITY": 0.029998, "INCLINATION": 73.7864, "RA_OF_ASC_NODE": 4.3592, "ARG_OF_PERICENTER": 188.2556, "MEAN_ANOMALY": 234.4903, "EPHEMERIS_TYPE": 0, "CLASSIFICATION_TYPE": "U", "NORAD_CAT_ID": 37278, "ELEMENT_SET_NO": 999, "REV_AT_EPOCH": 63711, "BSTAR": 0.0023061, "MEAN_MOTION_DOT": 6.884e-05, "MEAN_MOTION_DDOT": 0}, "tle": {"line1": "1 37278U 93036BHS 25338.39347399  .00006884  00000+0  23061-2 0  9995", "line2": "2 37278  73.7864   4.3592 0299980 188.2556 234.4903 14.15029915637119"}}, "geometry": {"type": "Point", "coordinates": [-36.03966439808363, -57.39350342873787]}}]}